*******************************************************************************
JPL/HORIZONS                172 Baucis (A877 CA)           2023-Sep-04 11:04:48
Rec #:     172 (+COV) Soln.date: 2023-Aug-22_09:32:02   # obs: 3290 (1882-2023)
 
IAU76/J2000 helio. ecliptic osc. elements (au, days, deg., period=Julian yrs):
 
  EPOCH=  2457614.5 ! 2016-Aug-14.00 (TDB)         Residual RMS= .3126
   EC= .1145103279164734   QR= 2.1074639397195     TP= 2456946.7469240008
   OM= 331.9825205766765   W=  359.2037026332707   IN= 10.02734935413835
   A= 2.379998328789889    MA= 179.2482783445456   ADIST= 2.652532717860278
   PER= 3.67175            N= .268434972           ANGMOM= .02636353
   DAN= 2.10748            DDN= 2.6525             L= 331.1983853
   B= -.1386456            MOID= 1.09628999        TP= 2014-Oct-16.2469240008
 
Asteroid physical parameters (km, seconds, rotational period in hours):
   GM= n.a.                RAD= 31.215             ROTPER= 27.417
   H= 8.77                 G= .150                 B-V= .890
                           ALBEDO= .1382           STYP= L

ASTEROID comments: 
1: soln ref.= JPL#96, OCC=0
2: source=ORB
*******************************************************************************


*******************************************************************************
Ephemeris / API_USER Mon Sep  4 11:04:48 2023 Pasadena, USA      / Horizons
*******************************************************************************
Target body name: 172 Baucis (A877 CA)            {source: JPL#96}
Center body name: Solar System Barycenter (0)     {source: DE441}
Center-site name: BODY CENTER
*******************************************************************************
Start time      : A.D. 2023-Aug-12 00:00:00.0000 TDB
Stop  time      : A.D. 2023-Aug-13 00:00:00.0000 TDB
Step-size       : 2880 minutes
*******************************************************************************
Center geodetic : 0.0, 0.0, 0.0                   {E-lon(deg),Lat(deg),Alt(km)}
Center cylindric: 0.0, 0.0, 0.0                   {E-lon(deg),Dxy(km),Dz(km)}
Center radii    : (undefined)
Small perturbers: Yes                             {source: SB441-N16}
Output units    : KM-S
Calendar mode   : Mixed Julian/Gregorian
Output type     : GEOMETRIC cartesian states
Output format   : 2 (position and velocity)
Reference frame : Ecliptic of J2000.0
*******************************************************************************
Initial IAU76/J2000 heliocentric ecliptic osculating elements (au, days, deg.):
  EPOCH=  2457614.5 ! 2016-Aug-14.00 (TDB)         Residual RMS= .3126         
   EC= .1145103279164734   QR= 2.1074639397195     TP= 2456946.7469240008      
   OM= 331.9825205766765   W=  359.2037026332707   IN= 10.02734935413835       
  Equivalent ICRF heliocentric cartesian coordinates (au, au/d):
   X=-2.311030243293696E+00  Y= 1.189953553295202E+00  Z= 5.281850012523343E-01
  VX=-4.821847545800706E-03 VY=-7.126198719043510E-03 VZ=-4.975182901646203E-03
Asteroid physical parameters (km, seconds, rotational period in hours):        
   GM= n.a.                RAD= 31.215             ROTPER= 27.417              
   H= 8.77                 G= .150                 B-V= .890                   
                           ALBEDO= .1382           STYP= L                     
*******************************************************************************
JDTDB
   X     Y     Z
   VX    VY    VZ
*******************************************************************************
$$SOE
2460168.500000000 = A.D. 2023-Aug-12 00:00:00.0000 TDB 
 X =-2.141371894381164E+08 Y = 3.256037066652551E+08 Z = 3.310503070075500E+07
 VX=-1.515676361038601E+01 VY=-8.386128374671769E+00 VZ=-2.566022585363419E+00
$$EOE
*******************************************************************************
 
TIME

  Barycentric Dynamical Time ("TDB" or T_eph) output was requested. This
continuous coordinate time is equivalent to the relativistic proper time
of a clock at rest in a reference frame co-moving with the solar system
barycenter but outside the system's gravity well. It is the independent
variable in the solar system relativistic equations of motion.

  TDB runs at a uniform rate of one SI second per second and is independent
of irregularities in Earth's rotation.
 
CALENDAR SYSTEM

  Mixed calendar mode was active such that calendar dates after AD 1582-Oct-15
(if any) are in the modern Gregorian system. Dates prior to 1582-Oct-5 (if any)
are in the Julian calendar system, which is automatically extended for dates
prior to its adoption on 45-Jan-1 BC.  The Julian calendar is useful for
matching historical dates. The Gregorian calendar more accurately corresponds
to the Earth's orbital motion and seasons. A "Gregorian-only" calendar mode is
available if such physical events are the primary interest.

REFERENCE FRAME AND COORDINATES

  Ecliptic at the standard reference epoch

    Reference epoch: J2000.0
    X-Y plane: adopted Earth orbital plane at the reference epoch
               Note: IAU76 obliquity of 84381.448 arcseconds wrt ICRF X-Y plane
    X-axis   : ICRF
    Z-axis   : perpendicular to the X-Y plane in the directional (+ or -) sense
               of Earth's north pole at the reference epoch.

  Symbol meaning:

    JDTDB    Julian Day Number, Barycentric Dynamical Time
      X      X-component of position vector (km)
      Y      Y-component of position vector (km)
      Z      Z-component of position vector (km)
      VX     X-component of velocity vector (km/sec)                           
      VY     Y-component of velocity vector (km/sec)                           
      VZ     Z-component of velocity vector (km/sec)                           

ABERRATIONS AND CORRECTIONS

 Geometric state vectors have NO corrections or aberrations applied.

Computations by ...

    Solar System Dynamics Group, Horizons On-Line Ephemeris System
    4800 Oak Grove Drive, Jet Propulsion Laboratory
    Pasadena, CA  91109   USA

    General site: https://ssd.jpl.nasa.gov/
    Mailing list: https://ssd.jpl.nasa.gov/email_list.html
    System news : https://ssd.jpl.nasa.gov/horizons/news.html
    User Guide  : https://ssd.jpl.nasa.gov/horizons/manual.html
    Connect     : browser        https://ssd.jpl.nasa.gov/horizons/app.html#/x
                  API            https://ssd-api.jpl.nasa.gov/doc/horizons.html
                  command-line   telnet ssd.jpl.nasa.gov 6775
                  e-mail/batch   https://ssd.jpl.nasa.gov/ftp/ssd/hrzn_batch.txt
                  scripts        https://ssd.jpl.nasa.gov/ftp/ssd/SCRIPTS
    Author      : Jon.D.Giorgini@jpl.nasa.gov
*******************************************************************************
